CCSDS_OMM_VERS = 2.0
CREATION_DATE  = 
ORIGINATOR     = 

OBJECT_NAME    = STARLINK-36850
OBJECT_ID      = 2026-044U
CENTER_NAME    = EARTH
REF_FRAME      = TEME
TIME_SYSTEM    = UTC
MEAN_ELEMENT_THEORY = SGP/SGP4

EPOCH          = 2026-04-01T22:00:01.999584
MEAN_MOTION    = 15.61666639
ECCENTRICITY   = .00018609
INCLINATION    = 97.2851
RA_OF_ASC_NODE = 53.1950
ARG_OF_PERICENTER = 81.7281
MEAN_ANOMALY   = 7.4968

EPHEMERIS_TYPE = 0
CLASSIFICATION_TYPE = U
NORAD_CAT_ID   = 68119
ELEMENT_SET_NO = 999
REV_AT_EPOCH   = 508
BSTAR          = -.25488554E-1
MEAN_MOTION_DOT = -.1935424E-1
MEAN_MOTION_DDOT = 0

CCSDS_OMM_VERS = 2.0
CREATION_DATE  = 
ORIGINATOR     = 

OBJECT_NAME    = STARLINK-36868
OBJECT_ID      = 2026-044V
CENTER_NAME    = EARTH
REF_FRAME      = TEME
TIME_SYSTEM    = UTC
MEAN_ELEMENT_THEORY = SGP/SGP4

EPOCH          = 2026-04-01T22:00:01.999584
MEAN_MOTION    = 15.62214849
ECCENTRICITY   = .00018053
INCLINATION    = 97.2850
RA_OF_ASC_NODE = 53.2011
ARG_OF_PERICENTER = 85.5237
MEAN_ANOMALY   = 17.9009

EPHEMERIS_TYPE = 0
CLASSIFICATION_TYPE = U
NORAD_CAT_ID   = 68120
ELEMENT_SET_NO = 999
REV_AT_EPOCH   = 508
BSTAR          = -.24971219E-1
MEAN_MOTION_DOT = -.1936856E-1
MEAN_MOTION_DDOT = 0

CCSDS_OMM_VERS = 2.0
CREATION_DATE  = 
ORIGINATOR     = 

OBJECT_NAME    = STARLINK-36855
OBJECT_ID      = 2026-044W
CENTER_NAME    = EARTH
REF_FRAME      = TEME
TIME_SYSTEM    = UTC
MEAN_ELEMENT_THEORY = SGP/SGP4

EPOCH          = 2026-04-01T22:00:01.999584
MEAN_MOTION    = 15.60767545
ECCENTRICITY   = .00017165
INCLINATION    = 97.2853
RA_OF_ASC_NODE = 53.1959
ARG_OF_PERICENTER = 83.6827
MEAN_ANOMALY   = 6.8259

EPHEMERIS_TYPE = 0
CLASSIFICATION_TYPE = U
NORAD_CAT_ID   = 68121
ELEMENT_SET_NO = 999
REV_AT_EPOCH   = 508
BSTAR          = -.26350334E-1
MEAN_MOTION_DOT = -.193261E-1
MEAN_MOTION_DDOT = 0

CCSDS_OMM_VERS = 2.0
CREATION_DATE  = 
ORIGINATOR     = 

OBJECT_NAME    = STARLINK-36366
OBJECT_ID      = 2026-044X
CENTER_NAME    = EARTH
REF_FRAME      = TEME
TIME_SYSTEM    = UTC
MEAN_ELEMENT_THEORY = SGP/SGP4

EPOCH          = 2026-04-01T22:00:01.999584
MEAN_MOTION    = 15.61071430
ECCENTRICITY   = .00017049
INCLINATION    = 97.2852
RA_OF_ASC_NODE = 53.1981
ARG_OF_PERICENTER = 84.6528
MEAN_ANOMALY   = 11.5891

EPHEMERIS_TYPE = 0
CLASSIFICATION_TYPE = U
NORAD_CAT_ID   = 68122
ELEMENT_SET_NO = 999
REV_AT_EPOCH   = 513
BSTAR          = -.26042909E-1
MEAN_MOTION_DOT = -.193262E-1
MEAN_MOTION_DDOT = 0

CCSDS_OMM_VERS = 2.0
CREATION_DATE  = 
ORIGINATOR     = 

OBJECT_NAME    = STARLINK-36922
OBJECT_ID      = 2026-044Y
CENTER_NAME    = EARTH
REF_FRAME      = TEME
TIME_SYSTEM    = UTC
MEAN_ELEMENT_THEORY = SGP/SGP4

EPOCH          = 2026-04-01T22:00:01.999584
MEAN_MOTION    = 15.61588326
ECCENTRICITY   = .00019683
INCLINATION    = 97.2850
RA_OF_ASC_NODE = 53.2074
ARG_OF_PERICENTER = 85.3037
MEAN_ANOMALY   = 30.9329

EPHEMERIS_TYPE = 0
CLASSIFICATION_TYPE = U
NORAD_CAT_ID   = 68123
ELEMENT_SET_NO = 999
REV_AT_EPOCH   = 513
BSTAR          = -.25673932E-1
MEAN_MOTION_DOT = -.1942698E-1
MEAN_MOTION_DDOT = 0

CCSDS_OMM_VERS = 2.0
CREATION_DATE  = 
ORIGINATOR     = 

OBJECT_NAME    = STARLINK-36938
OBJECT_ID      = 2026-044Z
CENTER_NAME    = EARTH
REF_FRAME      = TEME
TIME_SYSTEM    = UTC
MEAN_ELEMENT_THEORY = SGP/SGP4

EPOCH          = 2026-04-01T09:59:34.990944
MEAN_MOTION    = 15.75234691
ECCENTRICITY   = .00021496
INCLINATION    = 97.2853
RA_OF_ASC_NODE = 52.7672
ARG_OF_PERICENTER = 101.4283
MEAN_ANOMALY   = 258.7223

EPHEMERIS_TYPE = 0
CLASSIFICATION_TYPE = U
NORAD_CAT_ID   = 68124
ELEMENT_SET_NO = 999
REV_AT_EPOCH   = 506
BSTAR          = .13140655E-2
MEAN_MOTION_DOT = .200947E-2
MEAN_MOTION_DDOT = 0

CCSDS_OMM_VERS = 2.0
CREATION_DATE  = 
ORIGINATOR     = 

OBJECT_NAME    = STARLINK-36839
OBJECT_ID      = 2026-044AA
CENTER_NAME    = EARTH
REF_FRAME      = TEME
TIME_SYSTEM    = UTC
MEAN_ELEMENT_THEORY = SGP/SGP4

EPOCH          = 2026-04-01T22:00:01.999584
MEAN_MOTION    = 15.61617741
ECCENTRICITY   = .000183
INCLINATION    = 97.2851
RA_OF_ASC_NODE = 53.2045
ARG_OF_PERICENTER = 76.0827
MEAN_ANOMALY   = 34.6290

EPHEMERIS_TYPE = 0
CLASSIFICATION_TYPE = U
NORAD_CAT_ID   = 68125
ELEMENT_SET_NO = 999
REV_AT_EPOCH   = 508
BSTAR          = -.25454576E-1
MEAN_MOTION_DOT = -.1929878E-1
MEAN_MOTION_DDOT = 0

CCSDS_OMM_VERS = 2.0
CREATION_DATE  = 
ORIGINATOR     = 

OBJECT_NAME    = ECHOSTAR 25
OBJECT_ID      = 2026-045A
CENTER_NAME    = EARTH
REF_FRAME      = TEME
TIME_SYSTEM    = UTC
MEAN_ELEMENT_THEORY = SGP/SGP4

EPOCH          = 2026-04-01T15:43:13.919808
MEAN_MOTION    = 1.00284492
ECCENTRICITY   = .00026748
INCLINATION    = 0.0434
RA_OF_ASC_NODE = 281.5366
ARG_OF_PERICENTER = 130.6963
MEAN_ANOMALY   = 244.7410

EPHEMERIS_TYPE = 0
CLASSIFICATION_TYPE = U
NORAD_CAT_ID   = 68126
ELEMENT_SET_NO = 999
REV_AT_EPOCH   = 22
BSTAR          = 0
MEAN_MOTION_DOT = .48E-6
MEAN_MOTION_DDOT = 0

CCSDS_OMM_VERS = 2.0
CREATION_DATE  = 
ORIGINATOR     = 

OBJECT_NAME    = ICOR SV
OBJECT_ID      = 2026-046A
CENTER_NAME    = EARTH
REF_FRAME      = TEME
TIME_SYSTEM    = UTC
MEAN_ELEMENT_THEORY = SGP/SGP4

EPOCH          = 2026-04-01T20:03:50.323104
MEAN_MOTION    = 15.97946224
ECCENTRICITY   = .00940738
INCLINATION    = 123.0738
RA_OF_ASC_NODE = 311.6435
ARG_OF_PERICENTER = 230.5618
MEAN_ANOMALY   = 128.7104

EPHEMERIS_TYPE = 0
CLASSIFICATION_TYPE = U
NORAD_CAT_ID   = 68127
ELEMENT_SET_NO = 999
REV_AT_EPOCH   = 328
BSTAR          = .63821167E-3
MEAN_MOTION_DOT = .487015E-2
MEAN_MOTION_DDOT = .12211852E-4

CCSDS_OMM_VERS = 2.0
CREATION_DATE  = 
ORIGINATOR     = 

OBJECT_NAME    = FIREFLY ALPHA R/B
OBJECT_ID      = 2026-046B
CENTER_NAME    = EARTH
REF_FRAME      = TEME
TIME_SYSTEM    = UTC
MEAN_ELEMENT_THEORY = SGP/SGP4

EPOCH          = 2026-04-01T11:56:08.598336
MEAN_MOTION    = 15.57577138
ECCENTRICITY   = .00168751
INCLINATION    = 123.0931
RA_OF_ASC_NODE = 305.6451
ARG_OF_PERICENTER = 25.1208
MEAN_ANOMALY   = 335.0671

EPHEMERIS_TYPE = 0
CLASSIFICATION_TYPE = U
NORAD_CAT_ID   = 68128
ELEMENT_SET_NO = 999
REV_AT_EPOCH   = 319
BSTAR          = .5472154E-3
MEAN_MOTION_DOT = .41019E-3
MEAN_MOTION_DDOT = 0

CCSDS_OMM_VERS = 2.0
CREATION_DATE  = 
ORIGINATOR     = 

OBJECT_NAME    = GUOWANG GROUP 20 OBJECT A
OBJECT_ID      = 2026-047A
CENTER_NAME    = EARTH
REF_FRAME      = TEME
TIME_SYSTEM    = UTC
MEAN_ELEMENT_THEORY = SGP/SGP4

EPOCH          = 2026-03-31T17:03:07.909344
MEAN_MOTION    = 13.88489169
ECCENTRICITY   = .00004642
INCLINATION    = 50.0066
RA_OF_ASC_NODE = 341.2413
ARG_OF_PERICENTER = 148.3832
MEAN_ANOMALY   = 211.7094

EPHEMERIS_TYPE = 0
CLASSIFICATION_TYPE = U
NORAD_CAT_ID   = 68129
ELEMENT_SET_NO = 999
REV_AT_EPOCH   = 265
BSTAR          = .43304642E-4
MEAN_MOTION_DOT = -.93E-6
MEAN_MOTION_DDOT = 0

CCSDS_OMM_VERS = 2.0
CREATION_DATE  = 
ORIGINATOR     = 

OBJECT_NAME    = GUOWANG GROUP 20 OBJECT B
OBJECT_ID      = 2026-047B
CENTER_NAME    = EARTH
REF_FRAME      = TEME
TIME_SYSTEM    = UTC
MEAN_ELEMENT_THEORY = SGP/SGP4

EPOCH          = 2026-04-01T05:04:40.456704
MEAN_MOTION    = 13.87767313
ECCENTRICITY   = .00001339
INCLINATION    = 50.0054
RA_OF_ASC_NODE = 339.2252
ARG_OF_PERICENTER = 185.6237
MEAN_ANOMALY   = 174.4659

EPHEMERIS_TYPE = 0
CLASSIFICATION_TYPE = U
NORAD_CAT_ID   = 68130
ELEMENT_SET_NO = 999
REV_AT_EPOCH   = 271
BSTAR          = .69791497E-4
MEAN_MOTION_DOT = -.62E-6
MEAN_MOTION_DDOT = 0

