STARLINK-36850          
1 68119U 26044U   26091.91668981 -.01935424  00000+0 -25489-1 0  9995
2 68119  97.2851  53.1950 0001860  81.7281   7.4968 15.61666639  5080
STARLINK-36868          
1 68120U 26044V   26091.91668981 -.01936856  00000+0 -24971-1 0  9992
2 68120  97.2850  53.2011 0001805  85.5237  17.9009 15.62214849  5087
STARLINK-36855          
1 68121U 26044W   26091.91668981 -.01932610  00000+0 -26350-1 0  9990
2 68121  97.2853  53.1959 0001716  83.6827   6.8259 15.60767545  5084
STARLINK-36366          
1 68122U 26044X   26091.91668981 -.01932620  00000+0 -26043-1 0  9991
2 68122  97.2852  53.1981 0001704  84.6528  11.5891 15.61071430  5138
STARLINK-36922          
1 68123U 26044Y   26091.91668981 -.01942698  00000+0 -25674-1 0  9997
2 68123  97.2850  53.2074 0001968  85.3037  30.9329 15.61588326  5134
STARLINK-36938          
1 68124U 26044Z   26091.41637721  .00200947  00000+0  13141-2 0  9999
2 68124  97.2853  52.7672 0002149 101.4283 258.7223 15.75234691  5064
STARLINK-36839          
1 68125U 26044AA  26091.91668981 -.01929878  00000+0 -25455-1 0  9991
2 68125  97.2851  53.2045 0001830  76.0827  34.6290 15.61617741  5083
ECHOSTAR 25             
1 68126U 26045A   26091.65502222  .00000048  00000+0  00000+0 0  9992
2 68126   0.0434 281.5366 0002674 130.6963 244.7410  1.00284492   220
ICOR SV                 
1 68127U 26046A   26091.83599911  .00487015  12212-4  63821-3 0  9995
2 68127 123.0738 311.6435 0094073 230.5618 128.7104 15.97946224  3286
FIREFLY ALPHA R/B       
1 68128U 26046B   26091.49732174  .00041019  00000+0  54722-3 0  9995
2 68128 123.0931 305.6451 0016875  25.1208 335.0671 15.57577138  3192
GUOWANG GROUP 20 OBJECT*
1 68129U 26047A   26090.71050821 -.00000093  00000+0  43305-4 0  9997
2 68129  50.0066 341.2413 0000464 148.3832 211.7094 13.88489169  2650
GUOWANG GROUP 20 OBJECT*
1 68130U 26047B   26091.21157936 -.00000062  00000+0  69791-4 0  9993
2 68130  50.0054 339.2252 0000133 185.6237 174.4659 13.87767313  2711
